TDRS 3                  
1 19548U 88091B   18103.52612851 -.00000300  00000-0  00000+0 0  9999
2 19548  14.4392   4.9284 0038109 317.4868   6.1655  1.00280789 95414
SKYNET 4C               
1 20776U 90079A   18103.38371965  .00000127  00000-0  00000-0 0  9992
2 20776  13.9294  13.1505 0002758 353.0720   6.8963  1.00272765100978
TDRS 5                  
1 21639U 91054B   18103.73008152  .00000086  00000-0  00000+0 0  9992
2 21639  14.5387  18.2849 0024996 346.3119 292.4227  1.00268641 97765
TDRS 6                  
1 22314U 93003B   18103.89762692 -.00000291  00000-0  00000-0 0  9992
2 22314  14.0962  21.2742 0007360 334.5354 123.4424  1.00268245 92501
ASTRA 1D                
1 23331U 94070A   18104.39261328 -.00000266  00000-0  00000+0 0  9994
2 23331   8.0061  47.1748 0003946 336.7384 246.9465  1.00272376 86228
BRASILSAT B2            
1 23536U 95016A   18103.77674296 -.00000280  00000-0  00000+0 0  9991
2 23536   7.6313  49.0964 0002363 342.7401  21.7105  1.00272787 84370
AMSC 1                  
1 23553U 95019A   18103.82953634 -.00000115  00000-0  00000+0 0  9992
2 23553  10.4422  37.3002 0005994   3.8218 356.1480  1.00272644 84226
TDRS 7                  
1 23613U 95035B   18103.67776557 -.00000197  00000-0  00000-0 0  9998
2 23613  15.0581  11.9761 0033340   4.8842 153.5412  1.00267764 83309
INMARSAT 3-F1           
1 23839U 96020A   18104.01855025  .00000005  00000-0  00000+0 0  9996
2 23839   4.5534  66.1106 0006186 317.9118 249.2623  1.00271829 80678
ASTRA 1F                
1 23842U 96021A   18103.95237078  .00000132  00000-0  00000-0 0  9997
2 23842   0.0742  64.3354 0003535 317.7197 207.1749  1.00273791 22408
MSAT M1                 
1 23846U 96022A   18103.86692412 -.00000085  00000-0  00000+0 0  9996
2 23846   8.1924  46.6438 0006201 338.6692  21.2857  1.00271958 80495
INMARSAT 3-F2           
1 24307U 96053A   18104.36153517 -.00000128  00000-0  00000+0 0  9995
2 24307   3.2409  76.1967 0007497 296.9362 303.9969  1.00272624 79083
AMC-1 (GE-1)            
1 24315U 96054A   18104.03506801  .00000063  00000-0  00000+0 0  9994
2 24315   2.1991  83.4783 0002739 282.1503  78.2491  1.00273266 79086
AFRICASAT-2 (MEASAT-2)  
1 24653U 96063B   18104.06468772 -.00000228  00000-0  00000+0 0  9990
2 24653   7.9326  47.5801 0007062 219.6615 106.2363  1.00271493 78406
INMARSAT 3-F3           
1 24674U 96070A   18104.25659050  .00000034  00000-0  00000+0 0  9997
2 24674   4.0221  70.3066 0005728 313.7059  88.8260  1.00273829 78027
AMC-2 (GE-2)            
1 24713U 97002A   18103.40632633 -.00000214  00000-0  00000+0 0  9992
2 24713   4.8898  64.3872 0004787 319.2061 239.3906  1.00272151 28375
INTELSAT 26 (IS-26)     
1 24732U 97007A   18103.73618723 -.00000012  00000-0  00000-0 0  9995
2 24732   7.9119  47.9325 0005701 358.1226 126.6180  1.00271727 42790
GALAXY 25 (G-25)        
1 24812U 97026A   18102.70075742 -.00000170  00000-0  00000-0 0  9994
2 24812   0.1207  92.8370 0003544 286.3747 340.8034  1.00271887 76426
INTELSAT 5 (IS-5)       
1 24916U 97046A   18103.19863004 -.00000146  00000-0  00000-0 0  9994
2 24916   4.1316  69.6150 0003241 322.2142  37.9005  1.00271456 75677
AMC-3 (GE-3)            
1 24936U 97050A   18104.18963463 -.00000265  00000-0  00000+0 0  9992
2 24936   1.0207  90.9033 0002623 301.8685 165.7977  1.00270690 75508
NSS-5                   
1 24957U 97053A   18103.63573472  .00000105  00000-0  00000-0 0  9997
2 24957   4.4162  67.8000 0003652 323.7252  89.5643  1.00271967 75232
ASTRA 1G                
1 25071U 97076A   18103.63552571  .00000103  00000-0  00000-0 0  9995
2 25071   2.9374  77.1907 0003011 310.0102  94.2701  1.00275123 74617
BRASILSAT B3            
1 25152U 98006A   18103.80043127 -.00000286  00000-0  00000-0 0  9993
2 25152   4.5949  66.7983 0002862 312.9854  47.0892  1.00269808 13577
INMARSAT 3-F5           
1 25153U 98006B   18104.42982896 -.00000291  00000-0  00000+0 0  9993
2 25153   3.1767  73.4246 0005109 317.4522 272.4101  1.00269517 73948
NSS-806                 
1 25239U 98014A   18104.42727251 -.00000285  00000-0  00000+0 0  9992
2 25239   0.0816  55.8053 0004478 332.1195 280.9486  1.00274041 73715
CHINASAT 5A (ZX 5A)     
1 25354U 98033A   18103.91176789 -.00000358  00000-0  00000+0 0  9999
2 25354   1.8794  85.3533 0003490 246.8427 323.6083  1.00269188 77291
THOR III                
1 25358U 98035A   18103.61104753 -.00000046  00000-0  00000+0 0  9998
2 25358   5.9338  57.3873 0002660 325.1391  34.8737  1.00271213 72765
INTELSAT 805 (IS-805)   
1 25371U 98037A   18103.82402476 -.00000037  00000-0  00000-0 0  9992
2 25371   0.6560  93.2667 0003273 300.3829 273.9503  1.00272473 72600
ASTRA 2A                
1 25462U 98050A   18104.09910375 -.00000366  00000-0  00000+0 0  9994
2 25462   0.0618 247.4756 0002164 134.8259 329.0996  1.00274882 71802
JCSAT-4A                
1 25630U 99006A   18104.52695003 -.00000206  00000-0  00000+0 0  9992
2 25630   2.9146  78.4795 0005306 297.8056 166.0540  1.00273089 70066
SKYNET 4E               
1 25639U 99009B   18104.11438240 -.00000031  00000-0  00000+0 0  9993
2 25639  10.3787  26.3409 0004056   0.7648 215.0423  1.00272006 70076
ASIASAT 3S              
1 25657U 99013A   18104.17842725 -.00000239  00000-0  00000+0 0  9991
2 25657   3.1216  76.8225 0003689 298.8978  36.8824  1.00271945 69877
NIMIQ 1                 
1 25740U 99027A   18104.11924118 -.00000205  00000-0  00000+0 0  9993
2 25740   0.0168 273.3004 0004787 121.8702 123.4832  1.00271442 69268
ASTRA 1H                
1 25785U 99033A   18104.40313841 -.00000278  00000-0  00000+0 0  9996
2 25785   4.4025  67.9499 0002669 305.2957 267.3353  1.00272374 68843
ABS-7                   
1 25894U 99046A   18104.09910375 -.00000369  00000-0  00000+0 0  9992
2 25894   0.0453  94.6152 0002469 278.8789 340.5072  1.00274315 67196
ABS-6                   
1 25924U 99053A   18102.99955230 -.00000128  00000-0  00000-0 0  9994
2 25924   0.0589  82.2044 0002571 299.3178 338.4909  1.00270875 67931
TELSTAR 12 (ORION 2)    
1 25949U 99059A   18103.62495267 -.00000068  00000-0  00000-0 0  9990
2 25949   1.5726  87.4534 0002709 293.7343 296.3569  1.00272333 67589
AMC-4 (GE-4)            
1 25954U 99060A   18102.81653840  .00000080  00000-0  00000-0 0  9994
2 25954   0.0787  89.5929 0002408 294.3746 336.0455  1.00271562 13778
GALAXY 11 (G-11)        
1 26038U 99071A   18104.13784618  .00000130  00000-0  00000+0 0  9990
2 26038   0.1209  85.7483 0000560 262.1126 308.9249  1.00271621 67164
SUPERBIRD-B2            
1 26095U 00012A   18104.46874796 -.00000098  00000-0  00000+0 0  9997
2 26095   1.0464  91.6709 0003505 304.2007 137.4262  1.00272094 66495
ASIASTAR                
1 26107U 00016A   18103.88743766 -.00000337  00000-0  00000-0 0  9999
2 26107   2.2980  81.0728 0004238 299.9131 245.5327  1.00270027 65981
EUTELSAT 80A            
1 26369U 00028A   18104.36214581 -.00000107  00000-0  00000+0 0  9998
2 26369   1.6469  84.9749 0006604 298.7140 296.4658  1.00272573 65538
TDRS 8                  
1 26388U 00034A   18103.34023913 -.00000231  00000-0  00000-0 0  9999
2 26388   7.9857  53.3639 0009958 289.0384  70.8530  1.00271055 65239
ECHOSTAR 6              
1 26402U 00038A   18103.34150694 -.00000151  00000-0  00000-0 0  9998
2 26402   4.7493  65.5655 0002749 319.1162 203.5139  1.00271169 64998
INTELSAT 9 (IS-9)       
1 26451U 00043A   18104.15262615 -.00000219  00000-0  00000+0 0  9999
2 26451   4.1192  69.8212 0003089 329.8865 188.0276  1.00272064 64909
BRASILSAT B4            
1 26469U 00046A   18103.92663913 -.00000175  00000-0  00000+0 0  9992
2 26469   2.2822  83.2946 0002972 305.2756  55.1086  1.00271507 64698
NILESAT 102             
1 26470U 00046B   18103.78895597 -.00000063  00000-0  00000-0 0  9990
2 26470   2.3093  82.2384 0004623 296.8241  99.8656  1.00273052 15258
ASTRA 2B                
1 26494U 00054A   18104.43254512 -.00000157  00000-0  00000+0 0  9997
2 26494   2.8296  77.8563 0006784 320.7659 300.0565  1.00273133 64297
AMC-7 (GE-7)            
1 26495U 00054B   18103.81405861  .00000081  00000-0  00000+0 0  9999
2 26495   0.0925  88.4571 0001554 243.2401  28.2984  1.00273609 64313
NSS-11 (AAP-1)          
1 26554U 00059A   18103.61003535  .00000018  00000-0  00000-0 0  9991
2 26554   0.0504  69.9527 0002532 330.0172 197.3837  1.00272877 11351
N-SAT-110 (JCSAT-110)   
1 26559U 00060A   18103.91336287 -.00000359  00000-0  00000-0 0  9993
2 26559   0.0794  91.9173 0001465   4.3579 184.6504  1.00277668 11336
AMC-6 (GE-6)            
1 26580U 00067A   18104.13280293 -.00000222  00000-0  00000+0 0  9992
2 26580   0.0575  79.7791 0002598 327.1766 120.1152  1.00271806 64047
INTELSAT 12 (IS-12)     
1 26590U 00068A   18103.79933703  .00000130  00000-0  00000-0 0  9994
2 26590   1.1281  90.9590 0003538 318.7077 124.9963  1.00272337 21777
INTELSAT 1R (IS-1R)     
1 26608U 00072A   18104.18060814 -.00000143  00000-0  00000+0 0  9991
2 26608   0.9460  92.2921 0002362 278.1194  53.9989  1.00271848 63714
ANIK F1                 
1 26624U 00076A   18103.73739242 -.00000081  00000-0  00000+0 0  9992
2 26624   0.0140 188.3520 0001579 239.6257 292.0428  1.00271598 63784
ASTRA 2D                
1 26638U 00081A   18103.46518447  .00000044  00000-0  00000-0 0  9994
2 26638   4.2299  68.6467 0001889 303.6007  56.5072  1.00270188 22966
AMC-8 (GE-8)            
1 26639U 00081B   18103.61902064  .00000097  00000-0  00000+0 0  9991
2 26639   0.0562  78.1764 0001684 249.0794 318.3230  1.00271651 63325
SKYNET 4F               
1 26695U 01005B   18104.20948684 -.00000249  00000-0  00000+0 0  9994
2 26695   9.2273  34.5584 0002315 343.9870 225.2564  1.00272728 62932
EUTELSAT 33C            
1 26719U 01011A   18103.88305809  .00000149  00000-0  00000+0 0  9995
2 26719   0.1867  78.8600 0006379 319.8586 154.2822  1.00273719 62634
